idElset,classificationMarking,satNo,epoch,meanMotion,idOnOrbit,uct,eccentricity,inclination,raan,argOfPerigee,meanAnomaly,bStar,meanMotionDot,meanMotionDDot,semiMajorAxis,period,apogee,perigee,origObjectId,line1,line2,createdAt,createdBy,source,dataMode,ephemType,origNetwork,elset
143e2037-663d-4a32-8021-9a9b5059a82c,U//PR-EXO-ELSETS,20217,2025-08-09T20:32:57.439298Z,0.9740787173958613,20217,False,0.004782195842981841,14.94673199558325,349.0195041076459,140.9770164996178,245.7779591871896,0.0,0.0,0.0,42987.20014233844,1478.319949182085,43192.77335216056,42781.62693251632,20217,1 20217U 89070A   25221.85622036 +.00000000 +00000+0 +00000+0 2 99999,2 20217  14.9467 349.0195 0047821 140.9770 245.7780  0.97407871000002,2025-08-09T20:57:30.868Z,system.exo,EXO,REAL,2,OPS1,"{'NORAD_ID': 20217, 'classification': 'U', 'COSPAR_ID': '89070A', 'BC': 0.0, 'n_ddot': 0.0, 'B_star': 0.0, 'ephemeris_type': 2, 'elset_num': 9999, 'inclination': 14.9467, 'RAAN': 349.0195, 'eccentricity': 0.0047821, 'perigee': 140.977, 'mean_anomaly': 245.778, 'mean_motion': 0.97407871, 'rev_num': 0, 'line1': '1 20217U 89070A   25221.85622036 +.00000000 +00000+0 +00000+0 2 99999', 'line2': '2 20217  14.9467 349.0195 0047821 140.9770 245.7780  0.97407871000002', 'epoch': datetime.datetime(2025, 8, 9, 20, 32, 57, 439104)}"
dbe7a58d-fcab-4474-966a-04ee0231789e,U//PR-EXO-ELSETS,25465,2025-08-09T19:36:38.441090Z,1.828058674255537,25465,False,0.4979018662003197,14.36058185988542,109.2905839075459,16.50830127970286,156.3572232951618,0.0,0.0,0.0,28253.68562363075,787.7208867961685,42321.24842267363,14186.12282458786,25465,1 25465U 98050D   25221.81711159 +.00000000 +00000+0 +00000+0 2 99998,2 25465  14.3606 109.2906 4979018  16.5083 156.3572  1.82805867000006,2025-08-09T20:27:29.978Z,system.exo,EXO,REAL,2,OPS1,"{'NORAD_ID': 25465, 'classification': 'U', 'COSPAR_ID': '98050D', 'BC': 0.0, 'n_ddot': 0.0, 'B_star': 0.0, 'ephemeris_type': 2, 'elset_num': 9999, 'inclination': 14.3606, 'RAAN': 109.2906, 'eccentricity': 0.4979018, 'perigee': 16.5083, 'mean_anomaly': 156.3572, 'mean_motion': 1.82805867, 'rev_num': 0, 'line1': '1 25465U 98050D   25221.81711159 +.00000000 +00000+0 +00000+0 2 99998', 'line2': '2 25465  14.3606 109.2906 4979018  16.5083 156.3572  1.82805867000006', 'epoch': datetime.datetime(2025, 8, 9, 19, 36, 38, 441376)}"
e4ede08b-3b92-4817-b877-1d7bccb833c9,U//PR-EXO-ELSETS,26939,2025-08-09T19:36:44.443230Z,1.00282836187954,26939,False,0.002453940498930998,13.64878673445312,14.39956560160064,25.83067730467596,315.5244757199455,0.0,0.0,0.0,42161.63624856449,1435.938645872656,42265.09839525603,42058.17410187294,26939,1 26939U 01045D   25221.81718106 +.00000000 +00000+0 +00000+0 2 99992,2 26939  13.6488  14.3996 0024539  25.8307 315.5245  1.00282836000006,2025-08-09T20:21:33.155Z,system.exo,EXO,REAL,2,OPS1,"{'NORAD_ID': 26939, 'classification': 'U', 'COSPAR_ID': '01045D', 'BC': 0.0, 'n_ddot': 0.0, 'B_star': 0.0, 'ephemeris_type': 2, 'elset_num': 9999, 'inclination': 13.6488, 'RAAN': 14.3996, 'eccentricity': 0.0024539, 'perigee': 25.8307, 'mean_anomaly': 315.5245, 'mean_motion': 1.00282836, 'rev_num': 0, 'line1': '1 26939U 01045D   25221.81718106 +.00000000 +00000+0 +00000+0 2 99992', 'line2': '2 26939  13.6488  14.3996 0024539  25.8307 315.5245  1.00282836000006', 'epoch': datetime.datetime(2025, 8, 9, 19, 36, 44, 443584)}"
b5e11202-ab9a-4765-b6a5-0cfba7cb68e0,U//PR-EXO-ELSETS,24737,2025-08-09T20:38:38.128337Z,0.9902389354938049,24737,False,0.0008305814500907793,14.31897110610189,6.030219058075756,304.4943385269096,54.05467693284196,0.0,0.0,0.0,42518.23194925767,1454.194486184197,42553.54680400538,42482.91709450996,24737,1 24737U 97008A   25221.86016352 +.00000000 +00000+0 +00000+0 2 99999,2 24737  14.3190   6.0302 0008305 304.4943  54.0547  0.99023893000005,2025-08-09T21:00:30.690Z,system.exo,EXO,REAL,2,OPS1,"{'NORAD_ID': 24737, 'classification': 'U', 'COSPAR_ID': '97008A', 'BC': 0.0, 'n_ddot': 0.0, 'B_star': 0.0, 'ephemeris_type': 2, 'elset_num': 9999, 'inclination': 14.319, 'RAAN': 6.0302, 'eccentricity': 0.0008305, 'perigee': 304.4943, 'mean_anomaly': 54.0547, 'mean_motion': 0.99023893, 'rev_num': 0, 'line1': '1 24737U 97008A   25221.86016352 +.00000000 +00000+0 +00000+0 2 99999', 'line2': '2 24737  14.3190   6.0302 0008305 304.4943  54.0547  0.99023893000005', 'epoch': datetime.datetime(2025, 8, 9, 20, 38, 38, 128128)}"
5c67415c-2075-457c-98f8-3668dbe1358c,U//PR-EXO-ELSETS,30323,2025-08-09T20:43:06.245812Z,0.9915190014499808,30323,False,0.005236468454094351,9.154515567301488,60.20241977829016,264.9522685628042,61.25190390546669,0.0,0.0,0.0,42481.62961909024,1452.31709921259,42704.08333246913,42259.17590571136,30323,1 30323U 07003A   25221.86326673 +.00000000 +00000+0 +00000+0 2 99993,2 30323   9.1545  60.2024 0052364 264.9523  61.2519  0.99151900000000,2025-08-09T21:51:32.415Z,system.exo,EXO,REAL,2,OPS1,"{'NORAD_ID': 30323, 'classification': 'U', 'COSPAR_ID': '07003A', 'BC': 0.0, 'n_ddot': 0.0, 'B_star': 0.0, 'ephemeris_type': 2, 'elset_num': 9999, 'inclination': 9.1545, 'RAAN': 60.2024, 'eccentricity': 0.0052364, 'perigee': 264.9523, 'mean_anomaly': 61.2519, 'mean_motion': 0.991519, 'rev_num': 0, 'line1': '1 30323U 07003A   25221.86326673 +.00000000 +00000+0 +00000+0 2 99993', 'line2': '2 30323   9.1545  60.2024 0052364 264.9523  61.2519  0.99151900000000', 'epoch': datetime.datetime(2025, 8, 9, 20, 43, 6, 245472)}"
02655531-d359-488e-a155-4b40769d9494,U//PR-EXO-ELSETS,21019,2025-08-09T20:25:26.349248Z,1.000099109479648,21019,False,0.002805405283396906,13.1735323371958,340.2519349638243,176.0139155107254,205.3051450998079,0.0,0.0,0.0,42238.30696515808,1439.857296492577,42356.80253467988,42119.81139563629,21019,1 21019U 90112D   25221.85099941 +.00000000 +00000+0 +00000+0 2 99992,2 21019  13.1735 340.2519 0028054 176.0139 205.3051  1.00009910000001,2025-08-09T21:51:32.406Z,system.exo,EXO,REAL,2,OPS1,"{'NORAD_ID': 21019, 'classification': 'U', 'COSPAR_ID': '90112D', 'BC': 0.0, 'n_ddot': 0.0, 'B_star': 0.0, 'ephemeris_type': 2, 'elset_num': 9999, 'inclination': 13.1735, 'RAAN': 340.2519, 'eccentricity': 0.0028054, 'perigee': 176.0139, 'mean_anomaly': 205.3051, 'mean_motion': 1.0000991, 'rev_num': 0, 'line1': '1 21019U 90112D   25221.85099941 +.00000000 +00000+0 +00000+0 2 99992', 'line2': '2 21019  13.1735 340.2519 0028054 176.0139 205.3051  1.00009910000001', 'epoch': datetime.datetime(2025, 8, 9, 20, 25, 26, 349024)}"
e0937d5d-e971-44d6-91b6-4045bc9bc241,U//PR-EXO-ELSETS,23671,2025-08-09T20:19:18.692703Z,2.29017367098982,23671,False,0.7205044014201913,7.08733877695779,191.2185912469358,2.674278613105078,182.0644430860027,0.0,0.0,0.0,24312.12485884882,628.7732752501811,41829.11782752664,6795.131890170996,23671,1 23671U 95049B   25221.84674413 +.00000000 +00000+0 +00000+0 2 99994,2 23671   7.0873 191.2186 7205044   2.6743 182.0644  2.29017367000000,2025-08-09T21:36:31.598Z,system.exo,EXO,REAL,2,OPS1,"{'NORAD_ID': 23671, 'classification': 'U', 'COSPAR_ID': '95049B', 'BC': 0.0, 'n_ddot': 0.0, 'B_star': 0.0, 'ephemeris_type': 2, 'elset_num': 9999, 'inclination': 7.0873, 'RAAN': 191.2186, 'eccentricity': 0.7205044, 'perigee': 2.6743, 'mean_anomaly': 182.0644, 'mean_motion': 2.29017367, 'rev_num': 0, 'line1': '1 23671U 95049B   25221.84674413 +.00000000 +00000+0 +00000+0 2 99994', 'line2': '2 23671   7.0873 191.2186 7205044   2.6743 182.0644  2.29017367000000', 'epoch': datetime.datetime(2025, 8, 9, 20, 19, 18, 692832)}"
42e184fe-4ffc-444b-93af-1d2babc58d6c,U//PR-EXO-ELSETS,28634,2025-08-09T19:43:06.757793Z,1.002475373745219,28634,False,0.002105728706068418,12.79412607645732,20.65885472247785,255.0642839520649,81.216538612829,0.0,0.0,0.0,42171.53287342374,1436.444263583455,42260.33468077422,42082.73106607326,28634,1 28634U 05010F   25221.82160599 +.00000000 +00000+0 +00000+0 2 99990,2 28634  12.7941  20.6589 0021057 255.0643  81.2165  1.00247537000001,2025-08-09T20:21:33.156Z,system.exo,EXO,REAL,2,OPS1,"{'NORAD_ID': 28634, 'classification': 'U', 'COSPAR_ID': '05010F', 'BC': 0.0, 'n_ddot': 0.0, 'B_star': 0.0, 'ephemeris_type': 2, 'elset_num': 9999, 'inclination': 12.7941, 'RAAN': 20.6589, 'eccentricity': 0.0021057, 'perigee': 255.0643, 'mean_anomaly': 81.2165, 'mean_motion': 1.00247537, 'rev_num': 0, 'line1': '1 28634U 05010F   25221.82160599 +.00000000 +00000+0 +00000+0 2 99990', 'line2': '2 28634  12.7941  20.6589 0021057 255.0643  81.2165  1.00247537000001', 'epoch': datetime.datetime(2025, 8, 9, 19, 43, 6, 757536)}"
0124ddc9-d60d-472e-9770-bd14ff24a502,U//PR-EXO-ELSETS,40367,2025-08-09T20:42:05.948252Z,1.00268582399786,40367,False,0.0003901612075517092,4.845753089575027,76.62544315336619,159.3499917860328,132.8975786869721,0.0,0.0,0.0,42165.63184239852,1436.142773275184,42182.08323623533,42149.18044856171,40367,1 40367U 14090A   25221.86256885 +.00000000 +00000+0 +00000+0 2 99993,2 40367   4.8458  76.6254 0003901 159.3500 132.8976  1.00268582000005,2025-08-09T21:57:32.203Z,system.exo,EXO,REAL,2,OPS1,"{'NORAD_ID': 40367, 'classification': 'U', 'COSPAR_ID': '14090A', 'BC': 0.0, 'n_ddot': 0.0, 'B_star': 0.0, 'ephemeris_type': 2, 'elset_num': 9999, 'inclination': 4.8458, 'RAAN': 76.6254, 'eccentricity': 0.0003901, 'perigee': 159.35, 'mean_anomaly': 132.8976, 'mean_motion': 1.00268582, 'rev_num': 0, 'line1': '1 40367U 14090A   25221.86256885 +.00000000 +00000+0 +00000+0 2 99993', 'line2': '2 40367   4.8458  76.6254 0003901 159.3500 132.8976  1.00268582000005', 'epoch': datetime.datetime(2025, 8, 9, 20, 42, 5, 948640)}"
